STARLINK-32516          
1 62176U 24225P   26170.70724674 -.00001085  00000+0 -83131-4 0  9995
2 62176  70.0014 267.3354 0003126 272.8300  87.2501 14.98333295 85159
STARLINK-32542          
1 62177U 24225Q   26170.69472988  .00002142  00000+0  18724-3 0  9990
2 62177  70.0012 267.2901 0003530 268.2824  91.7931 14.98337015 85155
STARLINK-32600          
1 62178U 24225R   26170.64229963  .00002639  00000+0  22882-3 0  9990
2 62178  70.0004 257.5037 0003617 268.2468  91.8277 14.98335366 85396
STARLINK-32584          
1 62179U 24225S   26170.68637909  .00002767  00000+0  23959-3 0  9996
2 62179  70.0006 267.1992 0003255 269.6594  90.4192 14.98337109 85151
STARLINK-32587          
1 62180U 24225T   26170.67385406  .00004127  00000+0  35337-3 0  9994
2 62180  70.0010 267.1340 0003696 268.6233  91.4502 14.98339716 85155
STARLINK-32602          
1 62181U 24225U   26170.62560431  .00004797  00000+0  40939-3 0  9990
2 62181  70.0006 257.4490 0003381 270.8601  89.2171 14.98345874 85399
STARLINK-32565          
1 62182U 24225V   26170.52366171  .00005561  00000+0  47335-3 0  9992
2 62182  70.0006 267.5035 0002815 265.3403  94.7435 14.98342980 85138
STARLINK-32589          
1 62183U 24225W   26170.65702313  .00001334  00000+0  11957-3 0  9994
2 62183  70.0008 267.5635 0003115 267.7993  92.2810 14.98339990 85149
STARLINK-32581          
1 62184U 24225X   26170.67566481  .00001981  00000+0  17372-3 0  9996
2 62184  70.0007 257.2206 0003439 268.4998  91.5768 14.98336218 85404
STARLINK-32686          
1 62192U 24229A   26170.36760231  .00022640  00000+0  83017-3 0  9998
2 62192  43.0015  52.8729 0001105 278.0476  82.0250 15.27561336 86155
STARLINK-32688          
1 62193U 24229B   26170.71204258  .00009614  00000+0  35830-3 0  9996
2 62193  43.0000  54.6152 0001036 270.3060  89.7673 15.27591780 86167
STARLINK-32684          
1 62194U 24229C   26170.09785704  .00003049  00000+0  12028-3 0  9998
2 62194  43.0006  57.7415 0001643 262.7223  97.3442 15.27583667 87255
STARLINK-32672          
1 62195U 24229D   26170.37354664  .00014433  00000+0  53289-3 0  9990
2 62195  43.0002  56.3707 0001427 263.0039  97.0651 15.27585708 86111
STARLINK-32682          
1 62196U 24229E   26170.62253098  .00019774  00000+0  72582-3 0  9998
2 62196  43.0017  22.3812 0001658 269.9830  90.0832 15.27595491 86527
STARLINK-32663          
1 62197U 24229F   26170.73388590  .00012551  00000+0  46472-3 0  9992
2 62197  43.0046  54.7731 0001879 265.3059  94.7578 15.27589341 86162
STARLINK-32640          
1 62198U 24229G   26170.10429476  .00005413  00000+0  20607-3 0  9994
2 62198  42.9984  57.7886 0001372 275.0382  85.0313 15.27578945 86079
STARLINK-32653          
1 62199U 24229H   26170.71429049  .00020355  00000+0  74698-3 0  9999
2 62199  43.0039  47.6594 0001274 262.1947  97.8760 15.27587992 86240
STARLINK-32647          
1 62200U 24229J   26170.38767574  .00014812  00000+0  54638-3 0  9996
2 62200  43.0000  56.4766 0000777 294.0714  66.0056 15.27597973 86115
STARLINK-32667          
1 62201U 24229K   26170.02477397  .00014305  00000+0  52786-3 0  9998
2 62201  43.0036  58.0530 0001734 271.8948  88.1705 15.27610300 86068
STARLINK-32655          
1 62202U 24229L   26170.72617816  .00019264  00000+0  70760-3 0  9999
2 62202  43.0006  54.7119 0000742 255.6691 104.4078 15.27586823 86163
STARLINK-32665          
1 62203U 24229M   26170.70818872  .00013407  00000+0  49576-3 0  9997
2 62203  43.0007  54.5823 0001052 273.0302  87.0429 15.27585352 86165
STARLINK-32664          
1 62204U 24229N   26170.91668981  .00184353  00000+0  20294-2 0  9999
2 62204  42.9914  37.0439 0027209 251.9885 100.7221 15.61335727  5939
STARLINK-32660          
1 62205U 24229P   26170.35619498  .00032401  00000+0  11800-2 0  9996
2 62205  43.0032  42.3640 0000369 262.2600  97.8209 15.27631405 86276
STARLINK-32448          
1 62206U 24229Q   26170.09401262  .00014425  00000+0  53236-3 0  9992
2 62206  43.0022  57.7114 0001807 271.5904  88.4741 15.27600740 86073
STARLINK-32430          
1 62207U 24229R   26170.39331096  .00011093  00000+0  41197-3 0  9994
2 62207  43.0007  53.0650 0001122 292.4790  67.5943 15.27583876 86157
STARLINK-32675          
1 62208U 24229S   26170.37740282  .00030594  00000+0  11160-2 0  9997
2 62208  43.0009  56.3993 0000754 296.5482  63.5292 15.27601093 86110
STARLINK-32671          
1 62209U 24229T   26170.41337959  .00012435  00000+0  46044-3 0  9990
2 62209  43.0031  56.6629 0002566 278.5372  81.5189 15.27592700 86115
STARLINK-32670          
1 62210U 24229U   26170.36968864  .00058227  00000+0  21024-2 0  9990
2 62210  42.9996  56.3389 0001185 251.9408 108.1314 15.27679606 86113
STARLINK-32642          
1 62211U 24229V   26170.69019034  .00019600  00000+0  71916-3 0  9991
2 62211  42.9997  54.4429 0001652 272.8849  87.1814 15.27613274 86164
STARLINK-32668          
1 62212U 24229W   26170.39715421  .00022998  00000+0  84240-3 0  9990
2 62212  43.0131  53.0854 0003318 257.7375 102.3106 15.27586722 86151
