OBJECT_NAME,OBJECT_ID,EPOCH,MEAN_MOTION,ECCENTRICITY,INCLINATION,RA_OF_ASC_NODE,ARG_OF_PERICENTER,MEAN_ANOMALY,EPHEMERIS_TYPE,CLASSIFICATION_TYPE,NORAD_CAT_ID,ELEMENT_SET_NO,REV_AT_EPOCH,BSTAR,MEAN_MOTION_DOT,MEAN_MOTION_DDOT
STARLINK-32516,2024-225P,2026-06-19T16:58:26.118336,14.98333295,.00031264,70.0014,267.3354,272.8300,87.2501,0,U,62176,999,8515,-.83131376E-4,-.1085E-4,0
STARLINK-32542,2024-225Q,2026-06-19T16:40:24.661632,14.98337015,.00035303,70.0012,267.2901,268.2824,91.7931,0,U,62177,999,8515,.18724338E-3,.2142E-4,0
STARLINK-32600,2024-225R,2026-06-19T15:24:54.688032,14.98335366,.0003617,70.0004,257.5037,268.2468,91.8277,0,U,62178,999,8539,.2288158E-3,.2639E-4,0
STARLINK-32584,2024-225S,2026-06-19T16:28:23.153376,14.98337109,.00032551,70.0006,267.1992,269.6594,90.4192,0,U,62179,999,8515,.23958733E-3,.2767E-4,0
STARLINK-32587,2024-225T,2026-06-19T16:10:20.990784,14.98339716,.00036961,70.0010,267.1340,268.6233,91.4502,0,U,62180,999,8515,.35337411E-3,.4127E-4,0
STARLINK-32602,2024-225U,2026-06-19T15:00:52.212384,14.98345874,.00033814,70.0006,257.4490,270.8601,89.2171,0,U,62181,999,8539,.40939303E-3,.4797E-4,0
STARLINK-32565,2024-225V,2026-06-19T12:34:04.371744,14.98342980,.00028155,70.0006,267.5035,265.3403,94.7435,0,U,62182,999,8513,.47335136E-3,.5561E-4,0
STARLINK-32589,2024-225W,2026-06-19T15:46:06.798432,14.98339990,.00031158,70.0008,267.5635,267.7993,92.2810,0,U,62183,999,8514,.11957445E-3,.1334E-4,0
STARLINK-32581,2024-225X,2026-06-19T16:12:57.439584,14.98336218,.00034396,70.0007,257.2206,268.4998,91.5768,0,U,62184,999,8540,.1737213E-3,.1981E-4,0
STARLINK-32686,2024-229A,2026-06-19T08:49:20.839584,15.27561336,.00011058,43.0015,52.8729,278.0476,82.0250,0,U,62192,999,8615,.83017419E-3,.2264E-3,0
STARLINK-32688,2024-229B,2026-06-19T17:05:20.478912,15.27591780,.00010361,43.0000,54.6152,270.3060,89.7673,0,U,62193,999,8616,.35830482E-3,.9614E-4,0
STARLINK-32684,2024-229C,2026-06-19T02:20:54.848256,15.27583667,.0001643,43.0006,57.7415,262.7223,97.3442,0,U,62194,999,8725,.12028274E-3,.3049E-4,0
STARLINK-32672,2024-229D,2026-06-19T08:57:54.429696,15.27585708,.0001427,43.0002,56.3707,263.0039,97.0651,0,U,62195,999,8611,.53288621E-3,.14433E-3,0
STARLINK-32682,2024-229E,2026-06-19T14:56:26.676672,15.27595491,.0001658,43.0017,22.3812,269.9830,90.0832,0,U,62196,999,8652,.7258201E-3,.19774E-3,0
STARLINK-32663,2024-229F,2026-06-19T17:36:47.741760,15.27589341,.00018792,43.0046,54.7731,265.3059,94.7578,0,U,62197,999,8616,.46472195E-3,.12551E-3,0
STARLINK-32640,2024-229G,2026-06-19T02:30:11.067264,15.27578945,.00013729,42.9984,57.7886,275.0382,85.0313,0,U,62198,999,8607,.20607425E-3,.5413E-4,0
STARLINK-32653,2024-229H,2026-06-19T17:08:34.698336,15.27587992,.00012741,43.0039,47.6594,262.1947,97.8760,0,U,62199,999,8624,.74698374E-3,.20355E-3,0
STARLINK-32647,2024-229J,2026-06-19T09:18:15.183936,15.27597973,.00007772,43.0000,56.4766,294.0714,66.0056,0,U,62200,999,8611,.54638034E-3,.14812E-3,0
STARLINK-32667,2024-229K,2026-06-19T00:35:40.471008,15.27610300,.0001734,43.0036,58.0530,271.8948,88.1705,0,U,62201,999,8606,.52786162E-3,.14305E-3,0
STARLINK-32655,2024-229L,2026-06-19T17:25:41.793024,15.27586823,.00007421,43.0006,54.7119,255.6691,104.4078,0,U,62202,999,8616,.70759803E-3,.19264E-3,0
STARLINK-32665,2024-229M,2026-06-19T16:59:47.505408,15.27585352,.00010527,43.0007,54.5823,273.0302,87.0429,0,U,62203,999,8616,.49575993E-3,.13407E-3,0
STARLINK-32664,2024-229N,2026-06-19T22:00:01.999584,15.61335727,.00272098,42.9914,37.0439,251.9885,100.7221,0,U,62204,999,593,.20293603E-2,.184353E-2,0
STARLINK-32660,2024-229P,2026-06-19T08:32:55.246272,15.27631405,.00003697,43.0032,42.3640,262.2600,97.8209,0,U,62205,999,8627,.1179952E-2,.32401E-3,0
STARLINK-32448,2024-229Q,2026-06-19T02:15:22.690368,15.27600740,.00018079,43.0022,57.7114,271.5904,88.4741,0,U,62206,999,8607,.53235505E-3,.14425E-3,0
STARLINK-32430,2024-229R,2026-06-19T09:26:22.066944,15.27583876,.00011222,43.0007,53.0650,292.4790,67.5943,0,U,62207,999,8615,.4119733E-3,.11093E-3,0
STARLINK-32675,2024-229S,2026-06-19T09:03:27.603648,15.27601093,.00007542,43.0009,56.3993,296.5482,63.5292,0,U,62208,999,8611,.11159577E-2,.30594E-3,0
STARLINK-32671,2024-229T,2026-06-19T09:55:15.996576,15.27592700,.00025669,43.0031,56.6629,278.5372,81.5189,0,U,62209,999,8611,.46044441E-3,.12435E-3,0
STARLINK-32670,2024-229U,2026-06-19T08:52:21.098496,15.27679606,.00011854,42.9996,56.3389,251.9408,108.1314,0,U,62210,999,8611,.21024268E-2,.58227E-3,0
STARLINK-32642,2024-229V,2026-06-19T16:33:52.445376,15.27613274,.00016526,42.9997,54.4429,272.8849,87.1814,0,U,62211,999,8616,.71915635E-3,.196E-3,0
STARLINK-32668,2024-229W,2026-06-19T09:31:54.123744,15.27586722,.00033188,43.0131,53.0854,257.7375,102.3106,0,U,62212,999,8615,.84239971E-3,.22998E-3,0
